[{"OBJECT_NAME":"TIANMU-1 09","OBJECT_ID":"2023-101C","EPOCH":"2026-03-09T22:17:34.703232","MEAN_MOTION":15.29080822,"ECCENTRICITY":0.00049013,"INCLINATION":97.267,"RA_OF_ASC_NODE":121.1263,"ARG_OF_PERICENTER":139.4293,"MEAN_ANOMALY":220.7314,"EPHEMERIS_TYPE":0,"CLASSIFICATION_TYPE":"U","NORAD_CAT_ID":57401,"ELEMENT_SET_NO":999,"REV_AT_EPOCH":14647,"BSTAR":0.00030540035,"MEAN_MOTION_DOT":8.553e-5,"MEAN_MOTION_DDOT":0},{"OBJECT_NAME":"STARLINK-33588","OBJECT_ID":"2025-015Z","EPOCH":"2026-03-09T23:13:57.069696","MEAN_MOTION":15.30204109,"ECCENTRICITY":7.75e-5,"INCLINATION":53.1594,"RA_OF_ASC_NODE":318.9776,"ARG_OF_PERICENTER":95.2611,"MEAN_ANOMALY":264.8478,"EPHEMERIS_TYPE":0,"CLASSIFICATION_TYPE":"U","NORAD_CAT_ID":62781,"ELEMENT_SET_NO":999,"REV_AT_EPOCH":6455,"BSTAR":0.00065992311,"MEAN_MOTION_DOT":0.00019239,"MEAN_MOTION_DDOT":0}]
